SatCatId,ObjectName,LaunchYear,OrbitalPeriod,LaunchMass,StatusCode,Inclination,Status,UcsData,OrbitClassEstimated,LaunchSiteCountry,Owner,UseType,Purpose,LaunchVehicleClass,TLE1,TLE2,MeanMotion,Eccentricity,OrbitClass
54090,STARLINK-5177,2022,95.44,260.0,+,53.22,Active,1,LEO,USA,USA,Commercial,Communications,Falcon,1 54090U 22136AR  24012.68005181  .00000351  00000+0  40172-4 0  9996,2 54090  53.2176 267.0568 0001549  85.4279 274.6890 15.08831389 68648,15.08831389,0.0001549,LEO
54091,STARLINK-5221,2022,95.44,260.0,+,53.22,Active,1,LEO,USA,USA,Commercial,Communications,Falcon,1 54091U 22136AS  24012.12064422  .00003542  00000+0  24052-3 0  9992,2 54091  53.2174 269.2518 0001626 109.6515 250.4653 15.08843841 68098,15.08843841,0.0001626,LEO
54092,STARLINK-5190,2022,95.17,260.0,+,53.22,Active,1,LEO,USA,USA,Commercial,Communications,Falcon,1 54092U 22136AT  24012.11097733  .00040904  00000+0  22862-2 0  9992,2 54092  53.2156 268.5047 0003980 115.4340 244.7066 15.13121363 68104,15.13121363,0.000398,LEO
54093,STARLINK-5213,2022,95.44,260.0,+,53.22,Active,1,LEO,USA,USA,Commercial,Communications,Falcon,1 54093U 22136AU  24012.13538389  .00000109  00000+0  24915-4 0  9998,2 54093  53.2167 269.3419 0001431 105.7299 254.3851 15.08842805 68567,15.08842805,0.0001431,LEO
54094,STARLINK-5219,2022,95.44,260.0,+,53.22,Active,1,LEO,USA,USA,Commercial,Communications,Falcon,1 54094U 22136AV  24011.94403406 -.00000061  00000+0  14291-4 0  9992,2 54094  53.2176 270.2761 0001592 107.2168 252.8998 15.08840933 68069,15.08840933,0.0001592,LEO
54095,STARLINK-5193,2022,95.44,260.0,+,53.22,Active,1,LEO,USA,USA,Commercial,Communications,Falcon,1 54095U 22136AW  24012.12801146  .00002754  00000+0  19098-3 0  9996,2 54095  53.2159 269.2969 0001541  99.4809 260.6357 15.08850296 68099,15.08850296,0.0001541,LEO
54096,STARLINK-5188,2022,95.44,260.0,+,53.22,Active,1,LEO,USA,USA,Commercial,Communications,Falcon,1 54096U 22136AX  24012.13906029  .00001126  00000+0  88794-4 0  9996,2 54096  53.2163 269.3644 0001468 108.7900 251.3251 15.08850489 68094,15.08850489,0.0001468,LEO
54097,STARLINK-5197,2022,95.44,260.0,+,53.22,Active,1,LEO,USA,USA,Commercial,Communications,Falcon,1 54097U 22136AY  24012.80931612 -.00001147  00000+0 -53981-4 0  9992,2 54097  53.2163 241.4955 0001295  84.8193 275.2947 15.08830427 69017,15.08830427,0.0001295,LEO
54098,STARLINK-5217,2022,95.44,260.0,+,53.22,Active,1,LEO,USA,USA,Commercial,Communications,Falcon,1 54098U 22136AZ  24012.12432517  .00000136  00000+0  26610-4 0  9992,2 54098  53.2168 269.2696 0001654 115.7590 244.3573 15.08848734 68096,15.08848734,0.0001654,LEO
54099,STARLINK-5198,2022,95.44,260.0,+,53.22,Active,1,LEO,USA,USA,Commercial,Communications,Falcon,1 54099U 22136BA  24012.11696257 -.00000123  00000+0  10359-4 0  9995,2 54099  53.2171 269.2273 0001336  96.2871 263.8273 15.08842794 68097,15.08842794,0.0001336,LEO
54100,STARLINK-5185,2022,95.44,260.0,+,53.22,Active,1,LEO,USA,USA,Commercial,Communications,Falcon,1 54100U 22136BB  24012.72784906 -.00016014  00000+0 -98966-3 0  9990,2 54100  53.2156 266.6441 0002687 122.1135 238.0118 15.08859024 68651,15.08859024,0.0002687,LEO
54101,STARLINK-5204,2022,95.44,260.0,+,53.22,Active,1,LEO,USA,USA,Commercial,Communications,Falcon,1 54101U 22136BC  24012.66212725  .00000537  00000+0  51826-4 0  9995,2 54101  53.2160 251.9891 0001441  57.5490 302.5642 15.08837228 68858,15.08837228,0.0001441,LEO
54102,STARLINK-5179,2022,95.44,260.0,+,53.22,Active,1,LEO,USA,USA,Commercial,Communications,Falcon,1 54102U 22136BD  24012.84664690  .00001247  00000+0  96438-4 0  9995,2 54102  53.2161 266.6510 0001989 126.3816 233.7360 15.08836451 68663,15.08836451,0.0001989,LEO
54103,STARLINK-5200,2022,95.44,260.0,+,53.22,Active,1,LEO,USA,USA,Commercial,Communications,Falcon,1 54103U 22136BE  24012.79595506 -.00002127  00000+0 -11555-3 0  9995,2 54103  53.2166 246.4066 0001363 112.9793 247.1343 15.08848589 68948,15.08848589,0.0001363,LEO
54104,STARLINK-5203,2022,95.44,260.0,+,53.22,Active,1,LEO,USA,USA,Commercial,Communications,Falcon,1 54104U 22136BF  24012.80382346  .00000138  00000+0  26760-4 0  9997,2 54104  53.2158 231.4631 0001769  95.5403 264.5791 15.08836386 69152,15.08836386,0.0001769,LEO
54109,COSMOS 2561,2022,93.47,500.0,+,97.04,Active,1,LEO,Russia,Russia/USSR,Military,Surveillance,Soyuz,1 54109U 22137A   24012.68104819  .00014139  00000+0  34772-3 0  9993,2 54109  97.0372  95.1817 0012649 357.1408   2.9765 15.40646678 69494,15.40646678,0.0012649,LEO
54113,ONEWEB-0490,2022,109.11,148.0,+,87.92,Active,1,LEO,India,UK,Commercial,Communications,PSLV,1 54113U 22138A   24012.30554180 -.00000119  00000+0 -33054-3 0  9995,2 54113  87.9203 121.5162 0001869 108.0372 252.0965 13.19725742 59855,13.19725742,0.0001869,LEO
54114,ONEWEB-0492,2022,109.11,148.0,+,87.92,Active,1,LEO,India,UK,Commercial,Communications,PSLV,1 54114U 22138B   24012.33081539  .00000139  00000+0  31512-3 0  9999,2 54114  87.9210 121.5057 0002046 109.8184 250.3169 13.19726677 59861,13.19726677,0.0002046,LEO
54115,ONEWEB-0495,2022,109.11,148.0,+,87.92,Active,1,LEO,India,UK,Commercial,Communications,PSLV,1 54115U 22138C   24012.76360662  .00000029  00000+0  39205-4 0  9990,2 54115  87.9209 121.4311 0002023 116.3515 243.7826 13.19726029 60777,13.19726029,0.0002023,LEO
54116,ONEWEB-0497,2022,109.11,148.0,+,87.92,Active,1,LEO,India,UK,Commercial,Communications,PSLV,1 54116U 22138D   24012.32134134  .00000128  00000+0  28802-3 0  9996,2 54116  87.9205 121.5139 0001843 108.1032 252.0302 13.19724977 59832,13.19724977,0.0001843,LEO
54117,ONEWEB-0499,2022,109.11,148.0,+,87.92,Active,1,LEO,India,UK,Commercial,Communications,PSLV,1 54117U 22138E   24012.30396303  .00000120  00000+0  26639-3 0  9991,2 54117  87.9210 121.5114 0001390 125.2009 234.9254 13.19726705 59840,13.19726705,0.000139,LEO
54118,ONEWEB-0500,2022,109.11,148.0,+,87.92,Active,1,LEO,India,UK,Commercial,Communications,PSLV,1 54118U 22138F   24012.83785777  .00000068  00000+0  13862-3 0  9992,2 54118  87.9208 121.4061 0001799 104.0891 256.0442 13.19726328 60796,13.19726328,0.0001799,LEO
54119,ONEWEB-0501,2022,109.11,148.0,+,87.92,Active,1,LEO,India,UK,Commercial,Communications,PSLV,1 54119U 22138G   24012.33713387 -.00000150  00000+0 -40581-3 0  9998,2 54119  87.9202 121.5064 0002319 120.8091 239.3270 13.19727674 59833,13.19727674,0.0002319,LEO
54120,ONEWEB-0502,2022,109.11,148.0,+,87.92,Active,1,LEO,India,UK,Commercial,Communications,PSLV,1 54120U 22138H   24012.77782156  .00000083  00000+0  17430-3 0  9998,2 54120  87.9204 121.4105 0001809 114.2125 245.9197 13.19724721 60787,13.19724721,0.0001809,LEO
54121,ONEWEB-0503,2022,109.11,148.0,+,87.92,Active,1,LEO,India,UK,Commercial,Communications,PSLV,1 54121U 22138J   24012.31185753  .00000110  00000+0  24350-3 0  9999,2 54121  87.9202 121.5099 0001244 104.8378 255.2892 13.19727297 59849,13.19727297,0.0001244,LEO
54122,ONEWEB-0504,2022,109.11,148.0,+,87.92,Active,1,LEO,India,UK,Commercial,Communications,PSLV,1 54122U 22138K   24012.37505038  .00000024  00000+0  28517-4 0  9992,2 54122  87.9205 121.5000 0001612 119.1685 240.9609 13.19725914 59867,13.19725914,0.0001612,LEO
54123,ONEWEB-0505,2022,109.11,148.0,+,87.92,Active,1,LEO,India,UK,Commercial,Communications,PSLV,1 54123U 22138L   24012.29606469  .00000107  00000+0  23599-3 0  9990,2 54123  87.9205 121.5125 0002166 125.6564 234.4771 13.19725399 59831,13.19725399,0.0002166,LEO
54124,ONEWEB-0506,2022,109.11,148.0,+,87.92,Active,1,LEO,India,UK,Commercial,Communications,PSLV,1 54124U 22138M   24012.34660686 -.00000261  00000+0 -68381-3 0  9999,2 54124  87.9203 121.4997 0001879 114.9759 245.1569 13.19725815 59830,13.19725815,0.0001879,LEO
54125,ONEWEB-0507,2022,109.11,148.0,+,87.92,Active,1,LEO,India,UK,Commercial,Communications,PSLV,1 54125U 22138N   24012.36714768 -.00000371  00000+0 -96025-3 0  9991,2 54125  87.9210 121.5041 0002099 122.3628 237.7708 13.19722760 59886,13.1972276,0.0002099,LEO
54126,ONEWEB-0508,2022,109.11,148.0,+,87.92,Active,1,LEO,India,UK,Commercial,Communications,PSLV,1 54126U 22138P   24012.36398589  .00000068  00000+0  13719-3 0  9991,2 54126  87.9208 121.5022 0002146 119.5654 240.5692 13.19725501 59861,13.19725501,0.0002146,LEO
54127,ONEWEB-0509,2022,109.11,148.0,+,87.92,Active,1,LEO,India,UK,Commercial,Communications,PSLV,1 54127U 22138Q   24012.33870933  .00000063  00000+0  12604-3 0  9994,2 54127  87.9202 121.5045 0001756 112.3719 247.7600 13.19727018 59830,13.19727018,0.0001756,LEO
54128,ONEWEB-0510,2022,109.03,148.0,+,87.92,Active,1,LEO,India,UK,Commercial,Communications,PSLV,1 54128U 22138R   24012.70127914  .00000085  00000+0  17631-3 0  9999,2 54128  87.9227  90.8891 0002243  99.4052 260.7335 13.20770230 63169,13.2077023,0.0002243,LEO
54129,ONEWEB-0511,2022,109.11,148.0,+,87.92,Active,1,LEO,India,UK,Commercial,Communications,PSLV,1 54129U 22138S   24012.33555053  .00000161  00000+0  36960-3 0  9999,2 54129  87.9204 121.5071 0001350 118.9372 241.1896 13.19726855 59866,13.19726855,0.000135,LEO
54130,ONEWEB-0512,2022,109.11,148.0,+,87.92,Active,1,LEO,India,UK,Commercial,Communications,PSLV,1 54130U 22138T   24012.78255491 -.00000083  00000+0 -23980-3 0  9996,2 54130  87.9213 121.4224 0001914 119.4425 240.6899 13.19725307 60767,13.19725307,0.0001914,LEO
54131,ONEWEB-0513,2022,109.11,148.0,+,87.92,Active,1,LEO,India,UK,Commercial,Communications,PSLV,1 54131U 22138U   24012.29844353  .00000061  00000+0  12019-3 0  9999,2 54131  87.9209 121.5159 0001776 129.8165 230.3124 13.19724280 59712,13.1972428,0.0001776,LEO
54132,ONEWEB-0514,2022,109.11,148.0,+,87.92,Active,1,LEO,India,UK,Commercial,Communications,PSLV,1 54132U 22138V   24012.79835656  .00000054  00000+0  10286-3 0  9997,2 54132  87.9206 121.4186 0001617 107.2669 252.8640 13.19725747 60782,13.19725747,0.0001617,LEO
